{"type": "FeatureCollection", "features": [ {"type": "Feature", "properties": {"norad_id": 33779, "name": "COSMOS 2251 DEB", "group": "cosmos-2251-debris", "lat": -1.7088863075786087, "lon": 155.85295235461564, "alt_km": 673.334704651792, "timestamp": "2025-12-20T03:42:47.786719+00:00", "meta": {"OBJECT_NAME": "COSMOS 2251 DEB", "OBJECT_ID": "1993-036U", "EPOCH": "2025-12-19T19:52:05.280096", "MEAN_MOTION": 14.70612576, "ECCENTRICITY": 0.0016446, "INCLINATION": 74.0442, "RA_OF_ASC_NODE": 156.9758, "ARG_OF_PERICENTER": 189.895, "MEAN_ANOMALY": 238.5503, "EPHEMERIS_TYPE": 0, "CLASSIFICATION_TYPE": "U", "NORAD_CAT_ID": 33779, "ELEMENT_SET_NO": 999, "REV_AT_EPOCH": 88632, "BSTAR": 0.0015347, "MEAN_MOTION_DOT": 9.334e-05, "MEAN_MOTION_DDOT": 0}, "tle": {"line1": "1 33779U 93036U   25353.82783889  .00009334  00000+0  15347-2 0  9991", "line2": "2 33779  74.0442 156.9758 0016446 189.8950 238.5503 14.70612576886326"}}, "geometry": {"type": "Point", "coordinates": [155.85295235461564, -1.7088863075786087]}}, {"type": "Feature", "properties": {"norad_id": 33782, "name": "COSMOS 2251 DEB", "group": "cosmos-2251-debris", "lat": 35.297914248367526, "lon": -84.47148019226374, "alt_km": 748.9330853875745, "timestamp": "2025-12-20T03:42:47.786729+00:00", "meta": {"OBJECT_NAME": "COSMOS 2251 DEB", "OBJECT_ID": "1993-036X", "EPOCH": "2025-12-19T17:41:43.908864", "MEAN_MOTION": 14.40464443, "ECCENTRICITY": 0.0020996, "INCLINATION": 74.033, "RA_OF_ASC_NODE": 264.6052, "ARG_OF_PERICENTER": 328.4837, "MEAN_ANOMALY": 64.6655, "EPHEMERIS_TYPE": 0, "CLASSIFICATION_TYPE": "U", "NORAD_CAT_ID": 33782, "ELEMENT_SET_NO": 999, "REV_AT_EPOCH": 88227, "BSTAR": 0.00026855, "MEAN_MOTION_DOT": 8.29e-06, "MEAN_MOTION_DDOT": 0}, "tle": {"line1": "1 33782U 93036X   25353.73731376  .00000829  00000+0  26855-3 0  9996", "line2": "2 33782  74.0330 264.6052 0020996 328.4837  64.6655 14.40464443882271"}}, "geometry": {"type": "Point", "coordinates": [-84.47148019226374, 35.297914248367526]}}, {"type": "Feature", "properties": {"norad_id": 33785, "name": "COSMOS 2251 DEB", "group": "cosmos-2251-debris", "lat": -26.44670734056437, "lon": 37.11224777591177, "alt_km": 648.5334569342667, "timestamp": "2025-12-20T03:42:47.786740+00:00", "meta": {"OBJECT_NAME": "COSMOS 2251 DEB", "OBJECT_ID": "1993-036AA", "EPOCH": "2025-12-19T13:51:15.011712", "MEAN_MOTION": 14.70629257, "ECCENTRICITY": 0.0022933, "INCLINATION": 73.8672, "RA_OF_ASC_NODE": 46.5221, "ARG_OF_PERICENTER": 344.5556, "MEAN_ANOMALY": 171.9833, "EPHEMERIS_TYPE": 0, "CLASSIFICATION_TYPE": "U", "NORAD_CAT_ID": 33785, "ELEMENT_SET_NO": 999, "REV_AT_EPOCH": 88607, "BSTAR": 0.0012294, "MEAN_MOTION_DOT": 7.484e-05, "MEAN_MOTION_DDOT": 0}, "tle": {"line1": "1 33785U 93036AA  25353.57725708  .00007484  00000+0  12294-2 0  9998", "line2": "2 33785  73.8672  46.5221 0022933 344.5556 171.9833 14.70629257886076"}}, "geometry": {"type": "Point", "coordinates": [37.11224777591177, -26.44670734056437]}}, {"type": "Feature", "properties": {"norad_id": 33789, "name": "COSMOS 2251 DEB", "group": "cosmos-2251-debris", "lat": 50.00465923027503, "lon": -125.08761865454444, "alt_km": 841.4621745041914, "timestamp": "2025-12-20T03:42:47.786751+00:00", "meta": {"OBJECT_NAME": "COSMOS 2251 DEB", "OBJECT_ID": "1993-036AE", "EPOCH": "2025-12-19T06:37:22.486080", "MEAN_MOTION": 13.8880963, "ECCENTRICITY": 0.0239902, "INCLINATION": 74.0645, "RA_OF_ASC_NODE": 76.3133, "ARG_OF_PERICENTER": 190.5064, "MEAN_ANOMALY": 227.1281, "EPHEMERIS_TYPE": 0, "CLASSIFICATION_TYPE": "U", "NORAD_CAT_ID": 33789, "ELEMENT_SET_NO": 999, "REV_AT_EPOCH": 85186, "BSTAR": 0.00050387, "MEAN_MOTION_DOT": 7.43e-06, "MEAN_MOTION_DDOT": 0}, "tle": {"line1": "1 33789U 93036AE  25353.27595470  .00000743  00000+0  50387-3 0  9997", "line2": "2 33789  74.0645  76.3133 0239902 190.5064 227.1281 13.88809630851868"}}, "geometry": {"type": "Point", "coordinates": [-125.08761865454444, 50.00465923027503]}}, {"type": "Feature", "properties": {"norad_id": 33791, "name": "COSMOS 2251 DEB", "group": "cosmos-2251-debris", "lat": 11.904897419871041, "lon": 27.354909981298917, "alt_km": 768.2080693711305, "timestamp": "2025-12-20T03:42:47.786761+00:00", "meta": {"OBJECT_NAME": "COSMOS 2251 DEB", "OBJECT_ID": "1993-036AG", "EPOCH": "2025-12-19T13:25:43.746240", "MEAN_MOTION": 14.43157228, "ECCENTRICITY": 0.003029, "INCLINATION": 74.1748, "RA_OF_ASC_NODE": 25.0224, "ARG_OF_PERICENTER": 221.0189, "MEAN_ANOMALY": 300.3689, "EPHEMERIS_TYPE": 0, "CLASSIFICATION_TYPE": "U", "NORAD_CAT_ID": 33791, "ELEMENT_SET_NO": 999, "REV_AT_EPOCH": 88150, "BSTAR": 0.0005792, "MEAN_MOTION_DOT": 1.931e-05, "MEAN_MOTION_DDOT": 0}, "tle": {"line1": "1 33791U 93036AG  25353.55953410  .00001931  00000+0  57920-3 0  9993", "line2": "2 33791  74.1748  25.0224 0030290 221.0189 300.3689 14.43157228881506"}}, "geometry": {"type": "Point", "coordinates": [27.354909981298917, 11.904897419871041]}}, {"type": "Feature", "properties": {"norad_id": 33792, "name": "COSMOS 2251 DEB", "group": "cosmos-2251-debris", "lat": -17.375336618365008, "lon": -31.68134291141051, "alt_km": 899.1830581210643, "timestamp": "2025-12-20T03:42:47.786772+00:00", "meta": {"OBJECT_NAME": "COSMOS 2251 DEB", "OBJECT_ID": "1993-036AH", "EPOCH": "2025-12-19T10:31:05.428128", "MEAN_MOTION": 13.45834151, "ECCENTRICITY": 0.0427459, "INCLINATION": 73.9011, "RA_OF_ASC_NODE": 334.6469, "ARG_OF_PERICENTER": 38.065, "MEAN_ANOMALY": 77.8711, "EPHEMERIS_TYPE": 0, "CLASSIFICATION_TYPE": "U", "NORAD_CAT_ID": 33792, "ELEMENT_SET_NO": 999, "REV_AT_EPOCH": 82532, "BSTAR": 0.00080414, "MEAN_MOTION_DOT": 8.14e-06, "MEAN_MOTION_DDOT": 0}, "tle": {"line1": "1 33792U 93036AH  25353.43825727  .00000814  00000+0  80414-3 0  9993", "line2": "2 33792  73.9011 334.6469 0427459  38.0650  77.8711 13.45834151825321"}}, "geometry": {"type": "Point", "coordinates": [-31.68134291141051, -17.375336618365008]}}, {"type": "Feature", "properties": {"norad_id": 33793, "name": "COSMOS 2251 DEB", "group": "cosmos-2251-debris", "lat": -23.737359883163524, "lon": -36.3008735076607, "alt_km": 794.5526563333578, "timestamp": "2025-12-20T03:42:47.786782+00:00", "meta": {"OBJECT_NAME": "COSMOS 2251 DEB", "OBJECT_ID": "1993-036AJ", "EPOCH": "2025-12-19T20:36:01.325088", "MEAN_MOTION": 14.27744552, "ECCENTRICITY": 0.0078754, "INCLINATION": 73.9804, "RA_OF_ASC_NODE": 136.9795, "ARG_OF_PERICENTER": 285.6798, "MEAN_ANOMALY": 197.1543, "EPHEMERIS_TYPE": 0, "CLASSIFICATION_TYPE": "U", "NORAD_CAT_ID": 33793, "ELEMENT_SET_NO": 999, "REV_AT_EPOCH": 87308, "BSTAR": 0.00050527, "MEAN_MOTION_DOT": 1.263e-05, "MEAN_MOTION_DDOT": 0}, "tle": {"line1": "1 33793U 93036AJ  25353.85834867  .00001263  00000+0  50527-3 0  9996", "line2": "2 33793  73.9804 136.9795 0078754 285.6798 197.1543 14.27744552873081"}}, "geometry": {"type": "Point", "coordinates": [-36.3008735076607, -23.737359883163524]}}, {"type": "Feature", "properties": {"norad_id": 33795, "name": "COSMOS 2251 DEB", "group": "cosmos-2251-debris", "lat": 63.92906361661898, "lon": 97.3503536984687, "alt_km": 536.4554438197802, "timestamp": "2025-12-20T03:42:47.786792+00:00", "meta": {"OBJECT_NAME": "COSMOS 2251 DEB", "OBJECT_ID": "1993-036AL", "EPOCH": "2025-12-19T13:21:04.154112", "MEAN_MOTION": 15.05734189, "ECCENTRICITY": 0.0030632, "INCLINATION": 74.0324, "RA_OF_ASC_NODE": 62.7583, "ARG_OF_PERICENTER": 143.8166, "MEAN_ANOMALY": 283.2245, "EPHEMERIS_TYPE": 0, "CLASSIFICATION_TYPE": "U", "NORAD_CAT_ID": 33795, "ELEMENT_SET_NO": 999, "REV_AT_EPOCH": 90124, "BSTAR": 0.0008032, "MEAN_MOTION_DOT": 0.00011726, "MEAN_MOTION_DDOT": 0}, "tle": {"line1": "1 33795U 93036AL  25353.55629808  .00011726  00000+0  80320-3 0  9991", "line2": "2 33795  74.0324  62.7583 0030632 143.8166 283.2245 15.05734189901248"}}, "geometry": {"type": "Point", "coordinates": [97.3503536984687, 63.92906361661898]}}, {"type": "Feature", "properties": {"norad_id": 33797, "name": "COSMOS 2251 DEB", "group": "cosmos-2251-debris", "lat": 51.16146622206292, "lon": 41.678477284381835, "alt_km": 668.6857780585879, "timestamp": "2025-12-20T03:42:47.786803+00:00", "meta": {"OBJECT_NAME": "COSMOS 2251 DEB", "OBJECT_ID": "1993-036AN", "EPOCH": "2025-12-19T11:29:44.843136", "MEAN_MOTION": 14.57869848, "ECCENTRICITY": 0.0060455, "INCLINATION": 74.0466, "RA_OF_ASC_NODE": 22.151, "ARG_OF_PERICENTER": 107.9936, "MEAN_ANOMALY": 1.735, "EPHEMERIS_TYPE": 0, "CLASSIFICATION_TYPE": "U", "NORAD_CAT_ID": 33797, "ELEMENT_SET_NO": 999, "REV_AT_EPOCH": 89083, "BSTAR": 0.00025982, "MEAN_MOTION_DOT": 1.191e-05, "MEAN_MOTION_DDOT": 0}, "tle": {"line1": "1 33797U 93036AN  25353.47899124  .00001191  00000+0  25982-3 0  9992", "line2": "2 33797  74.0466  22.1510 0060455 107.9936   1.7350 14.57869848890838"}}, "geometry": {"type": "Point", "coordinates": [41.678477284381835, 51.16146622206292]}}, {"type": "Feature", "properties": {"norad_id": 33798, "name": "COSMOS 2251 DEB", "group": "cosmos-2251-debris", "lat": -54.838918204129435, "lon": 98.10512304595298, "alt_km": 716.5475626619573, "timestamp": "2025-12-20T03:42:47.786813+00:00", "meta": {"OBJECT_NAME": "COSMOS 2251 DEB", "OBJECT_ID": "1993-036AP", "EPOCH": "2025-12-19T20:15:20.971872", "MEAN_MOTION": 14.4462273, "ECCENTRICITY": 0.0092402, "INCLINATION": 74.029, "RA_OF_ASC_NODE": 122.6727, "ARG_OF_PERICENTER": 242.4984, "MEAN_ANOMALY": 243.0738, "EPHEMERIS_TYPE": 0, "CLASSIFICATION_TYPE": "U", "NORAD_CAT_ID": 33798, "ELEMENT_SET_NO": 999, "REV_AT_EPOCH": 88696, "BSTAR": 0.00012749, "MEAN_MOTION_DOT": 4.35e-06, "MEAN_MOTION_DDOT": 0}, "tle": {"line1": "1 33798U 93036AP  25353.84399273  .00000435  00000+0  12749-3 0  9991", "line2": "2 33798  74.0290 122.6727 0092402 242.4984 243.0738 14.44622730886968"}}, "geometry": {"type": "Point", "coordinates": [98.10512304595298, -54.838918204129435]}}]}